{"type": "FeatureCollection", "features": [ {"type": "Feature", "properties": {"norad_id": 32289, "name": "YAOGAN-3", "group": "resource", "lat": -11.684564181428197, "lon": 12.14197960360821, "alt_km": 602.7029827888682, "timestamp": "2025-12-09T20:37:08.938274+00:00", "meta": {"OBJECT_NAME": "YAOGAN-3", "OBJECT_ID": "2007-055A", "EPOCH": "2025-12-09T14:13:27.583968", "MEAN_MOTION": 14.89833857, "ECCENTRICITY": 0.00014218, "INCLINATION": 97.8364, "RA_OF_ASC_NODE": 10.2458, "ARG_OF_PERICENTER": 69.3822, "MEAN_ANOMALY": 290.7548, "EPHEMERIS_TYPE": 0, "CLASSIFICATION_TYPE": "U", "NORAD_CAT_ID": 32289, "ELEMENT_SET_NO": 999, "REV_AT_EPOCH": 97762, "BSTAR": 0.00030154157, "MEAN_MOTION_DOT": 2.84e-05, "MEAN_MOTION_DDOT": 0}, "tle": {"line1": "1 32289U 07055A   25343.59268037  .00002840  00000+0  30154-3 0  9997", "line2": "2 32289  97.8364  10.2458 0001421  69.3822 290.7548 14.89833857977623"}}, "geometry": {"type": "Point", "coordinates": [12.14197960360821, -11.684564181428197]}}, {"type": "Feature", "properties": {"norad_id": 32376, "name": "COSMO-SKYMED 2", "group": "resource", "lat": -13.0439089001516, "lon": 167.0651966231654, "alt_km": 627.209125405403, "timestamp": "2025-12-09T20:37:08.938285+00:00", "meta": {"OBJECT_NAME": "COSMO-SKYMED 2", "OBJECT_ID": "2007-059A", "EPOCH": "2025-12-09T14:11:50.794368", "MEAN_MOTION": 14.82160555, "ECCENTRICITY": 0.0001534, "INCLINATION": 97.8812, "RA_OF_ASC_NODE": 164.9627, "ARG_OF_PERICENTER": 85.5631, "MEAN_ANOMALY": 274.5758, "EPHEMERIS_TYPE": 0, "CLASSIFICATION_TYPE": "U", "NORAD_CAT_ID": 32376, "ELEMENT_SET_NO": 999, "REV_AT_EPOCH": 97391, "BSTAR": 0.00013416216, "MEAN_MOTION_DOT": 1.016e-05, "MEAN_MOTION_DDOT": 0}, "tle": {"line1": "1 32376U 07059A   25343.59156012  .00001016  00000+0  13416-3 0  9993", "line2": "2 32376  97.8812 164.9627 0001534  85.5631 274.5758 14.82160555973918"}}, "geometry": {"type": "Point", "coordinates": [167.0651966231654, -13.0439089001516]}}, {"type": "Feature", "properties": {"norad_id": 32382, "name": "RADARSAT-2", "group": "resource", "lat": 62.56771435596125, "lon": -174.6008913679554, "alt_km": 784.988654152, "timestamp": "2025-12-09T20:37:08.938295+00:00", "meta": {"OBJECT_NAME": "RADARSAT-2", "OBJECT_ID": "2007-061A", "EPOCH": "2025-12-09T15:02:25.060416", "MEAN_MOTION": 14.29986146, "ECCENTRICITY": 0.00010809, "INCLINATION": 98.5795, "RA_OF_ASC_NODE": 348.2616, "ARG_OF_PERICENTER": 85.9301, "MEAN_ANOMALY": 274.2005, "EPHEMERIS_TYPE": 0, "CLASSIFICATION_TYPE": "U", "NORAD_CAT_ID": 32382, "ELEMENT_SET_NO": 999, "REV_AT_EPOCH": 93886, "BSTAR": 7.5765993e-05, "MEAN_MOTION_DOT": 1.52e-06, "MEAN_MOTION_DDOT": 0}, "tle": {"line1": "1 32382U 07061A   25343.62667894  .00000152  00000+0  75766-4 0  9999", "line2": "2 32382  98.5795 348.2616 0001080  85.9301 274.2005 14.29986146938862"}}, "geometry": {"type": "Point", "coordinates": [-174.6008913679554, 62.56771435596125]}}, {"type": "Feature", "properties": {"norad_id": 32783, "name": "CARTOSAT-2A", "group": "resource", "lat": 19.503647870502213, "lon": -143.44741727009693, "alt_km": 640.0178800198637, "timestamp": "2025-12-09T20:37:08.938306+00:00", "meta": {"OBJECT_NAME": "CARTOSAT-2A", "OBJECT_ID": "2008-021A", "EPOCH": "2025-12-09T15:01:34.540608", "MEAN_MOTION": 14.78927544, "ECCENTRICITY": 0.00121808, "INCLINATION": 97.7928, "RA_OF_ASC_NODE": 33.5466, "ARG_OF_PERICENTER": 14.2927, "MEAN_ANOMALY": 345.8626, "EPHEMERIS_TYPE": 0, "CLASSIFICATION_TYPE": "U", "NORAD_CAT_ID": 32783, "ELEMENT_SET_NO": 999, "REV_AT_EPOCH": 95078, "BSTAR": 0.0001708074, "MEAN_MOTION_DOT": 1.211e-05, "MEAN_MOTION_DDOT": 0}, "tle": {"line1": "1 32783U 08021A   25343.62609422  .00001211  00000+0  17081-3 0  9996", "line2": "2 32783  97.7928  33.5466 0012180  14.2927 345.8626 14.78927544950785"}}, "geometry": {"type": "Point", "coordinates": [-143.44741727009693, 19.503647870502213]}}, {"type": "Feature", "properties": {"norad_id": 33320, "name": "HUANJING 1A (HJ-1A)", "group": "resource", "lat": -20.73047213068386, "lon": -24.80495313967915, "alt_km": 617.7681435084614, "timestamp": "2025-12-09T20:37:08.938316+00:00", "meta": {"OBJECT_NAME": "HUANJING 1A (HJ-1A)", "OBJECT_ID": "2008-041A", "EPOCH": "2025-12-09T14:14:14.463744", "MEAN_MOTION": 14.83375519, "ECCENTRICITY": 0.00203423, "INCLINATION": 97.654, "RA_OF_ASC_NODE": 332.0228, "ARG_OF_PERICENTER": 44.316, "MEAN_ANOMALY": 315.9678, "EPHEMERIS_TYPE": 0, "CLASSIFICATION_TYPE": "U", "NORAD_CAT_ID": 33320, "ELEMENT_SET_NO": 999, "REV_AT_EPOCH": 93029, "BSTAR": 0.00013610067, "MEAN_MOTION_DOT": 1.069e-05, "MEAN_MOTION_DDOT": 0}, "tle": {"line1": "1 33320U 08041A   25343.59322296  .00001069  00000+0  13610-3 0  9998", "line2": "2 33320  97.6540 332.0228 0020342  44.3160 315.9678 14.83375519930291"}}, "geometry": {"type": "Point", "coordinates": [-24.80495313967915, -20.73047213068386]}}, {"type": "Feature", "properties": {"norad_id": 33321, "name": "HUANJING 1B (HJ-1B)", "group": "resource", "lat": -26.670220536981333, "lon": 152.1161078876182, "alt_km": 640.3846629901864, "timestamp": "2025-12-09T20:37:08.938327+00:00", "meta": {"OBJECT_NAME": "HUANJING 1B (HJ-1B)", "OBJECT_ID": "2008-041B", "EPOCH": "2025-12-09T14:50:03.459840", "MEAN_MOTION": 14.82808961, "ECCENTRICITY": 0.00382641, "INCLINATION": 97.6399, "RA_OF_ASC_NODE": 335.7517, "ARG_OF_PERICENTER": 85.5122, "MEAN_ANOMALY": 275.0462, "EPHEMERIS_TYPE": 0, "CLASSIFICATION_TYPE": "U", "NORAD_CAT_ID": 33321, "ELEMENT_SET_NO": 999, "REV_AT_EPOCH": 93031, "BSTAR": 0.0002606067, "MEAN_MOTION_DOT": 2.084e-05, "MEAN_MOTION_DDOT": 0}, "tle": {"line1": "1 33321U 08041B   25343.61809560  .00002084  00000+0  26061-3 0  9998", "line2": "2 33321  97.6399 335.7517 0038264  85.5122 275.0462 14.82808961930313"}}, "geometry": {"type": "Point", "coordinates": [152.1161078876182, -26.670220536981333]}}, {"type": "Feature", "properties": {"norad_id": 33331, "name": "GEOEYE 1", "group": "resource", "lat": 18.709289896775772, "lon": 52.40250199145208, "alt_km": 677.941809083809, "timestamp": "2025-12-09T20:37:08.938337+00:00", "meta": {"OBJECT_NAME": "GEOEYE 1", "OBJECT_ID": "2008-042A", "EPOCH": "2025-12-09T13:58:31.533888", "MEAN_MOTION": 14.64806431, "ECCENTRICITY": 0.00027688, "INCLINATION": 98.1256, "RA_OF_ASC_NODE": 54.9025, "ARG_OF_PERICENTER": 290.6565, "MEAN_ANOMALY": 69.4341, "EPHEMERIS_TYPE": 0, "CLASSIFICATION_TYPE": "U", "NORAD_CAT_ID": 33331, "ELEMENT_SET_NO": 999, "REV_AT_EPOCH": 92239, "BSTAR": 0.00021897079, "MEAN_MOTION_DOT": 1.121e-05, "MEAN_MOTION_DDOT": 0}, "tle": {"line1": "1 33331U 08042A   25343.58230942  .00001121  00000+0  21897-3 0  9991", "line2": "2 33331  98.1256  54.9025 0002768 290.6565  69.4341 14.64806431922396"}}, "geometry": {"type": "Point", "coordinates": [52.40250199145208, 18.709289896775772]}}, {"type": "Feature", "properties": {"norad_id": 33396, "name": "THEOS", "group": "resource", "lat": -21.148225238042002, "lon": 45.38407967834577, "alt_km": 830.5870317606823, "timestamp": "2025-12-09T20:37:08.938348+00:00", "meta": {"OBJECT_NAME": "THEOS", "OBJECT_ID": "2008-049A", "EPOCH": "2025-12-09T15:38:48.289056", "MEAN_MOTION": 14.20096494, "ECCENTRICITY": 0.0001112, "INCLINATION": 98.5866, "RA_OF_ASC_NODE": 41.8323, "ARG_OF_PERICENTER": 94.462, "MEAN_ANOMALY": 265.6684, "EPHEMERIS_TYPE": 0, "CLASSIFICATION_TYPE": "U", "NORAD_CAT_ID": 33396, "ELEMENT_SET_NO": 999, "REV_AT_EPOCH": 89106, "BSTAR": 0.00023328841, "MEAN_MOTION_DOT": 4.54e-06, "MEAN_MOTION_DDOT": 0}, "tle": {"line1": "1 33396U 08049A   25343.65194779  .00000454  00000+0  23329-3 0  9994", "line2": "2 33396  98.5866  41.8323 0001112  94.4620 265.6684 14.20096494891069"}}, "geometry": {"type": "Point", "coordinates": [45.38407967834577, -21.148225238042002]}}, {"type": "Feature", "properties": {"norad_id": 33412, "name": "COSMO-SKYMED 3", "group": "resource", "lat": -79.9590019317169, "lon": -36.944820510732086, "alt_km": 555.950755191925, "timestamp": "2025-12-09T20:37:08.938358+00:00", "meta": {"OBJECT_NAME": "COSMO-SKYMED 3", "OBJECT_ID": "2008-054A", "EPOCH": "2025-12-09T14:39:56.612160", "MEAN_MOTION": 15.05302808, "ECCENTRICITY": 0.0015922, "INCLINATION": 97.8457, "RA_OF_ASC_NODE": 193.95, "ARG_OF_PERICENTER": 184.7313, "MEAN_ANOMALY": 175.3765, "EPHEMERIS_TYPE": 0, "CLASSIFICATION_TYPE": "U", "NORAD_CAT_ID": 33412, "ELEMENT_SET_NO": 999, "REV_AT_EPOCH": 92840, "BSTAR": 0.00035246287, "MEAN_MOTION_DOT": 4.991e-05, "MEAN_MOTION_DDOT": 0}, "tle": {"line1": "1 33412U 08054A   25343.61107190  .00004991  00000+0  35246-3 0  9997", "line2": "2 33412  97.8457 193.9500 0015922 184.7313 175.3765 15.05302808928407"}}, "geometry": {"type": "Point", "coordinates": [-36.944820510732086, -79.9590019317169]}}, {"type": "Feature", "properties": {"norad_id": 33446, "name": "YAOGAN-4", "group": "resource", "lat": 59.46081661663875, "lon": 107.63152761188928, "alt_km": 623.2318173039394, "timestamp": "2025-12-09T20:37:08.938369+00:00", "meta": {"OBJECT_NAME": "YAOGAN-4", "OBJECT_ID": "2008-061A", "EPOCH": "2025-12-09T13:36:11.546784", "MEAN_MOTION": 14.82667849, "ECCENTRICITY": 0.00138508, "INCLINATION": 97.918, "RA_OF_ASC_NODE": 273.6972, "ARG_OF_PERICENTER": 334.0999, "MEAN_ANOMALY": 25.9519, "EPHEMERIS_TYPE": 0, "CLASSIFICATION_TYPE": "U", "NORAD_CAT_ID": 33446, "ELEMENT_SET_NO": 999, "REV_AT_EPOCH": 91756, "BSTAR": 0.00035667818, "MEAN_MOTION_DOT": 2.827e-05, "MEAN_MOTION_DDOT": 0}, "tle": {"line1": "1 33446U 08061A   25343.56680031  .00002827  00000+0  35668-3 0  9990", "line2": "2 33446  97.9180 273.6972 0013850 334.0999  25.9519 14.82667849917560"}}, "geometry": {"type": "Point", "coordinates": [107.63152761188928, 59.46081661663875]}}]}